{
  "norad_id": 63842,
  "name": "STARLINK-34026",
  "history": [
    {
      "epoch": "2026-03-28T22:33:51.127776Z",
      "apogee_km": 483.34422820458803,
      "perigee_km": 482.6736198019753,
      "latitude_deg": 3.0017878014367596e-05,
      "longitude_deg": 164.60248481477774,
      "height_km": 482.9348479757878,
      "semi_major_axis_km": 6861.145924003281,
      "eccentricity": 4.887e-05,
      "inclination_deg": 43.001,
      "raan_deg": 329.4189,
      "arg_perigee_deg": 243.4263,
      "mean_anomaly_deg": 116.6539,
      "mean_motion_rev_day": 15.27593416
    },
    {
      "epoch": "2026-03-29T00:07:56.999712Z",
      "apogee_km": 484.4070344735255,
      "perigee_km": 481.3868073415424,
      "latitude_deg": -1.613077328147163e-05,
      "longitude_deg": 140.64716148062854,
      "height_km": 482.2553866305426,
      "semi_major_axis_km": 6861.033920907534,
      "eccentricity": 0.0002201,
      "inclination_deg": 43.0009,
      "raan_deg": 329.0525,
      "arg_perigee_deg": 286.1068,
      "mean_anomaly_deg": 73.9541,
      "mean_motion_rev_day": 15.27630822
    },
    {
      "epoch": "2026-03-29T23:40:20.956224Z",
      "apogee_km": 483.902795283725,
      "perigee_km": 481.9800466670322,
      "latitude_deg": -2.5928697288011615e-05,
      "longitude_deg": 141.04487978034797,
      "height_km": 482.283354311671,
      "semi_major_axis_km": 6861.078420975378,
      "eccentricity": 0.00014012,
      "inclination_deg": 43.0027,
      "raan_deg": 323.5168,
      "arg_perigee_deg": 296.903,
      "mean_anomaly_deg": 63.1678,
      "mean_motion_rev_day": 15.2761596
    },
    {
      "epoch": "2026-03-30T15:21:55.129824Z",
      "apogee_km": 483.92983013737376,
      "perigee_km": 482.1649962826077,
      "latitude_deg": 5.4039867030956764e-05,
      "longitude_deg": -98.68680565748913,
      "height_km": 482.7210905523535,
      "semi_major_axis_km": 6861.18441320999,
      "eccentricity": 0.00012861,
      "inclination_deg": 43.0004,
      "raan_deg": 319.8219,
      "arg_perigee_deg": 276.7015,
      "mean_anomaly_deg": 83.3691,
      "mean_motion_rev_day": 15.27580562
    },
    {
      "epoch": "2026-03-30T21:38:32.368992Z",
      "apogee_km": 484.2469215665351,
      "perigee_km": 481.7598953912693,
      "latitude_deg": 8.27921164732841e-06,
      "longitude_deg": 165.42119496740787,
      "height_km": 482.9879411040703,
      "semi_major_axis_km": 6861.140408478902,
      "eccentricity": 0.00018124,
      "inclination_deg": 43.0009,
      "raan_deg": 318.3429,
      "arg_perigee_deg": 260.3966,
      "mean_anomaly_deg": 99.6681,
      "mean_motion_rev_day": 15.27595258
    },
    {
      "epoch": "2026-03-31T21:10:54.048000Z",
      "apogee_km": 483.1761407433987,
      "perigee_km": 482.8125007833978,
      "latitude_deg": 5.5060314593649545e-06,
      "longitude_deg": 165.82513719246333,
      "height_km": 482.9488074848011,
      "semi_major_axis_km": 6861.131320763398,
      "eccentricity": 2.65e-05,
      "inclination_deg": 43.0008,
      "raan_deg": 312.8039,
      "arg_perigee_deg": 170.0121,
      "mean_anomaly_deg": 190.0736,
      "mean_motion_rev_day": 15.27598293
    },
    {
      "epoch": "2026-04-01T20:43:14.736000Z",
      "apogee_km": 484.0967659473554,
      "perigee_km": 481.8422063560065,
      "latitude_deg": -4.759712405239416e-05,
      "longitude_deg": 166.23306612781775,
      "height_km": 482.5679442204515,
      "semi_major_axis_km": 6861.106486151681,
      "eccentricity": 0.0001643,
      "inclination_deg": 43.0012,
      "raan_deg": 307.2648,
      "arg_perigee_deg": 279.1153,
      "mean_anomaly_deg": 80.9512,
      "mean_motion_rev_day": 15.27606587
    },
    {
      "epoch": "2026-04-02T15:33:07.071264Z",
      "apogee_km": 484.1650881742962,
      "perigee_km": 481.7359887421817,
      "latitude_deg": -5.413602790559151e-06,
      "longitude_deg": -121.44102194455076,
      "height_km": 482.79321362765774,
      "semi_major_axis_km": 6861.087538458239,
      "eccentricity": 0.00017702,
      "inclination_deg": 43.0008,
      "raan_deg": 302.8321,
      "arg_perigee_deg": 266.9038,
      "mean_anomaly_deg": 93.1611,
      "mean_motion_rev_day": 15.27612915
    },
    {
      "epoch": "2026-04-02T21:49:44.291424Z",
      "apogee_km": 484.3967643382457,
      "perigee_km": 481.48670640342607,
      "latitude_deg": 3.147987064761387e-05,
      "longitude_deg": 142.67104611934494,
      "height_km": 482.4580701188724,
      "semi_major_axis_km": 6861.078735370836,
      "eccentricity": 0.00021207,
      "inclination_deg": 43.0029,
      "raan_deg": 301.357,
      "arg_perigee_deg": 280.3438,
      "mean_anomaly_deg": 79.7175,
      "mean_motion_rev_day": 15.27615855
    },
    {
      "epoch": "2026-04-03T13:31:17.968224Z",
      "apogee_km": 483.9639808655338,
      "perigee_km": 481.8971528716893,
      "latitude_deg": 7.214428913466914e-06,
      "longitude_deg": -97.05877552995779,
      "height_km": 482.9500429108413,
      "semi_major_axis_km": 6861.067566868611,
      "eccentricity": 0.00015062,
      "inclination_deg": 43.0005,
      "raan_deg": 297.662,
      "arg_perigee_deg": 256.4168,
      "mean_anomaly_deg": 103.6516,
      "mean_motion_rev_day": 15.27619585
    },
    {
      "epoch": "2026-04-04T13:03:39.381120Z",
      "apogee_km": 483.75571529113495,
      "perigee_km": 482.23130931391097,
      "latitude_deg": -2.678611873774007e-05,
      "longitude_deg": -96.65575667545869,
      "height_km": 483.52123235749985,
      "semi_major_axis_km": 6861.130512302522,
      "eccentricity": 0.00011109,
      "inclination_deg": 42.9985,
      "raan_deg": 292.121,
      "arg_perigee_deg": 189.1968,
      "mean_anomaly_deg": 170.8863,
      "mean_motion_rev_day": 15.27598563
    },
    {
      "epoch": "2026-04-05T12:36:02.469312Z",
      "apogee_km": 484.0972590481533,
      "perigee_km": 482.10502994051785,
      "latitude_deg": -4.225179557977771e-05,
      "longitude_deg": -96.25591838464315,
      "height_km": 483.00438426622026,
      "semi_major_axis_km": 6861.238144494335,
      "eccentricity": 0.00014518,
      "inclination_deg": 43.0014,
      "raan_deg": 286.5838,
      "arg_perigee_deg": 262.7122,
      "mean_anomaly_deg": 97.3564,
      "mean_motion_rev_day": 15.27562618
    },
    {
      "epoch": "2026-04-05T18:52:40.154304Z",
      "apogee_km": 484.29763829403055,
      "perigee_km": 481.86437593998653,
      "latitude_deg": 6.366795795760888e-06,
      "longitude_deg": 167.85181943046706,
      "height_km": 483.0809057484897,
      "semi_major_axis_km": 6861.218007117009,
      "eccentricity": 0.00017732,
      "inclination_deg": 43.0021,
      "raan_deg": 285.1063,
      "arg_perigee_deg": 259.4519,
      "mean_anomaly_deg": 100.6133,
      "mean_motion_rev_day": 15.27569343
    },
    {
      "epoch": "2026-04-07T11:40:42.274560Z",
      "apogee_km": 483.9228188678371,
      "perigee_km": 481.94367454447183,
      "latitude_deg": 1.876918289723918e-05,
      "longitude_deg": -95.43642667867681,
      "height_km": 483.4142020839977,
      "semi_major_axis_km": 6861.070246706154,
      "eccentricity": 0.00014423,
      "inclination_deg": 42.9968,
      "raan_deg": 275.5025,
      "arg_perigee_deg": 224.5632,
      "mean_anomaly_deg": 135.5104,
      "mean_motion_rev_day": 15.2761869
    },
    {
      "epoch": "2026-04-07T21:05:38.477184Z",
      "apogee_km": 484.59011586076394,
      "perigee_km": 481.3942018985572,
      "latitude_deg": 1.4135617147207144e-05,
      "longitude_deg": 120.731004187366,
      "height_km": 482.7504911562962,
      "semi_major_axis_km": 6861.12915887966,
      "eccentricity": 0.0002329,
      "inclination_deg": 43.0037,
      "raan_deg": 273.2908,
      "arg_perigee_deg": 270.6989,
      "mean_anomaly_deg": 89.3596,
      "mean_motion_rev_day": 15.27599015
    },
    {
      "epoch": "2026-04-08T12:47:12.579936Z",
      "apogee_km": 483.9843896738794,
      "perigee_km": 482.05119070019555,
      "latitude_deg": -3.6463192924717466e-07,
      "longitude_deg": -119.00108872957468,
      "height_km": 483.1850530509191,
      "semi_major_axis_km": 6861.154790187037,
      "eccentricity": 0.00014088,
      "inclination_deg": 42.9987,
      "raan_deg": 269.5953,
      "arg_perigee_deg": 246.1489,
      "mean_anomaly_deg": 113.9215,
      "mean_motion_rev_day": 15.27590455
    },
    {
      "epoch": "2026-04-09T20:10:22.081440Z",
      "apogee_km": 483.8705758416727,
      "perigee_km": 482.27328640250744,
      "latitude_deg": -2.9768099515787938e-05,
      "longitude_deg": 121.53671032935117,
      "height_km": 483.46199836543155,
      "semi_major_axis_km": 6861.20893112209,
      "eccentricity": 0.0001164,
      "inclination_deg": 42.9984,
      "raan_deg": 262.2117,
      "arg_perigee_deg": 219.7312,
      "mean_anomaly_deg": 140.3454,
      "mean_motion_rev_day": 15.27572374
    },
    {
      "epoch": "2026-04-10T11:51:55.149120Z",
      "apogee_km": 484.2639047082066,
      "perigee_km": 481.6731512608394,
      "latitude_deg": 4.565757406882199e-05,
      "longitude_deg": -118.18566172543002,
      "height_km": 482.7180417645558,
      "semi_major_axis_km": 6861.105527984522,
      "eccentricity": 0.0001888,
      "inclination_deg": 43.0021,
      "raan_deg": 258.5215,
      "arg_perigee_deg": 271.23,
      "mean_anomaly_deg": 88.8336,
      "mean_motion_rev_day": 15.27606907
    },
    {
      "epoch": "2026-04-11T19:15:02.220192Z",
      "apogee_km": 484.23848874747364,
      "perigee_km": 481.79591785109824,
      "latitude_deg": 2.115951949600211e-05,
      "longitude_deg": 122.3603985270561,
      "height_km": 482.8084497447048,
      "semi_major_axis_km": 6861.154203299286,
      "eccentricity": 0.000178,
      "inclination_deg": 43.0031,
      "raan_deg": 251.136,
      "arg_perigee_deg": 269.3479,
      "mean_anomaly_deg": 90.7169,
      "mean_motion_rev_day": 15.27590651
    },
    {
      "epoch": "2026-04-13T07:20:37.456512Z",
      "apogee_km": 483.96808091692765,
      "perigee_km": 482.0413351024854,
      "latitude_deg": -5.927444884785363e-06,
      "longitude_deg": -69.01324081131378,
      "height_km": 482.94490768405166,
      "semi_major_axis_km": 6861.141708009706,
      "eccentricity": 0.00014041,
      "inclination_deg": 43.0013,
      "raan_deg": 242.6415,
      "arg_perigee_deg": 260.2353,
      "mean_anomaly_deg": 99.834,
      "mean_motion_rev_day": 15.27594824
    }
  ]
}